{
    "links": {
        "self": "http://www.neowsapp.com/rest/v1/neo/3616690?api_key=iIulBulltgU6a56xZRHN4H3l9WmuAYTsLGpBGhQ2"
    },
    "id": "3616690",
    "neo_reference_id": "3616690",
    "name": "(2012 VF6)",
    "designation": "2012 VF6",
    "nasa_jpl_url": "http://ssd.jpl.nasa.gov/sbdb.cgi?sstr=3616690",
    "absolute_magnitude_h": 21.3,
    "estimated_diameter": {
        "kilometers": {
            "estimated_diameter_min": 0.1460679643,
            "estimated_diameter_max": 0.3266178974
        },
        "meters": {
            "estimated_diameter_min": 146.0679642714,
            "estimated_diameter_max": 326.6178974458
        },
        "miles": {
            "estimated_diameter_min": 0.090762397,
            "estimated_diameter_max": 0.2029508896
        },
        "feet": {
            "estimated_diameter_min": 479.2256199,
            "estimated_diameter_max": 1071.581062656
        }
    },
    "is_potentially_hazardous_asteroid": false,
    "close_approach_data": [
        {
            "close_approach_date": "2012-11-08",
            "close_approach_date_full": "2012-Nov-08 00:59",
            "epoch_date_close_approach": 1352336340000,
            "relative_velocity": {
                "kilometers_per_second": "30.9947865245",
                "kilometers_per_hour": "111581.2314880301",
                "miles_per_hour": "69332.2379765485"
            },
            "miss_distance": {
                "astronomical": "0.420673047",
                "lunar": "163.641815283",
                "kilometers": "62931791.79760989",
                "miles": "39104002.146360882"
            },
            "orbiting_body": "Earth"
        }
    ],
    "orbital_data": {
        "orbit_id": "8",
        "orbit_determination_date": "2017-04-06 08:48:12",
        "first_observation_date": "2012-11-03",
        "last_observation_date": "2012-11-22",
        "data_arc_in_days": 19,
        "observations_used": 23,
        "orbit_uncertainty": "7",
        "minimum_orbit_intersection": ".382471",
        "jupiter_tisserand_invariant": "2.196",
        "epoch_osculation": "2459000.5",
        "eccentricity": ".6109200789733471",
        "semi_major_axis": "3.284620983406657",
        "inclination": "60.89203594753572",
        "ascending_node_longitude": "219.3240400023677",
        "orbital_period": "2174.334322427092",
        "perihelion_distance": "1.277980072826349",
        "perihelion_argument": "218.475655578934",
        "aphelion_distance": "5.291261893986966",
        "perihelion_time": "2458458.970464334589",
        "mean_anomaly": "89.6599160620042",
        "mean_motion": ".1655679148725167",
        "equinox": "J2000",
        "orbit_class": {
            "orbit_class_type": "AMO",
            "orbit_class_description": "Near-Earth asteroid orbits similar to that of 1221 Amor",
            "orbit_class_range": "1.017 AU < q (perihelion) < 1.3 AU"
        }
    },
    "is_sentry_object": false
}